{"spkid": "20038071", "covariance": {"elements": [{"name": "e", "sigma": 7.92069088121482e-09, "title": "eccentricity", "value": ".5077014481448601", "units": null, "label": "e"}, {"label": "q", "sigma": 1.65527106254309e-08, "name": "q", "value": "1.028315451496683", "title": "perihelion distance", "units": "au"}, {"sigma": 7.94449543592179e-06, "name": "tp", "units": "TDB", "value": "2455689.969419633885", "title": "time of perihelion passage", "label": "tp"}, {"name": "om", "sigma": 2.88288741735738e-06, "units": "deg", "title": "longitude of the ascending node", "value": "195.5898571986192", "label": "node"}, {"units": "deg", "title": "argument of perihelion", "value": "8.776454878921335", "sigma": 1.01867817380999e-05, "name": "w", "label": "peri"}, {"label": "i", "units": "deg", "title": "inclination", "value": "12.74214837983059", "name": "i", "sigma": 1.18338796826887e-06}], "data": [["6.273734403575961E-17", "-1.310429699428627E-16", "-4.77366385374403E-15", "-1.979095335585073E-14", "1.26619775614857E-14", "-2.192504490952505E-15"], ["-1.310429699428627E-16", "2.73992229049254E-16", "1.166841408487138E-14", "4.137391734479176E-14", "-2.621034115444955E-14", "4.606742436415191E-15"], ["-4.77366385374403E-15", "1.166841408487138E-14", "6.311500773138222E-11", "-4.281059923055463E-13", "7.22824661159468E-11", "6.547835277284608E-12"], ["-1.979095335585073E-14", "4.137391734479176E-14", "-4.281059923055463E-13", "8.311039861157478E-12", "-9.128806530062147E-12", "1.504199037075312E-12"], ["1.26619775614857E-14", "-2.621034115444955E-14", "7.22824661159468E-11", "-9.128806530062147E-12", "1.037705221796866E-10", "6.918738109146094E-12"], ["-2.192504490952505E-15", "4.606742436415191E-15", "6.547835277284608E-12", "1.504199037075312E-12", "6.918738109146094E-12", "1.400407083443526E-12"]], "labels": ["e", "q", "tp", "node", "peri", "i"], "epoch": "2455779.5"}, "elements": [{"label": "e", "title": "eccentricity", "value": ".5068726609177846", "units": null, "sigma": "8.128E-9", "name": "e"}, {"units": "au", "value": "2.090235892260814", "title": "semi-major axis", "name": "a", "sigma": "1.5269E-9", "label": "a"}, {"title": "perihelion distance", "value": "1.030752463604715", "units": "au", "name": "q", "sigma": "1.7134E-8", "label": "q"}, {"name": "i", "sigma": "1.1685E-6", "value": "12.73180833763459", "title": "inclination; angle with respect to x-y ecliptic plane", "units": "deg", "label": "i"}, {"title": "longitude of the ascending node", "value": "195.4550037622797", "units": "deg", "sigma": "2.8864E-6", "name": "om", "label": "node"}, {"label": "peri", "sigma": "1.0239E-5", "name": "w", "units": "deg", "value": "8.794448848008743", "title": "argument of perihelion"}, {"label": "M", "units": "deg", "title": "mean anomaly", "value": "357.8746249342623", "sigma": "3.9001E-6", "name": "ma"}, {"units": "TDB", "value": "2461207.016650936967", "title": "time of perihelion passage", "name": "tp", "sigma": "1.1965E-5", "label": "tp"}, {"label": "period", "title": "sidereal orbital period", "value": "1103.802512378517", "units": "d", "name": "per", "sigma": "1.2095E-6"}, {"sigma": "3.5737E-10", "name": "n", "title": "mean motion", "value": ".3261452986044196", "units": "deg/d", "label": "n"}, {"label": "Q", "units": "au", "title": "aphelion distance", "value": "3.149719320916912", "name": "ad", "sigma": "2.3008E-9"}], "epoch": "2461200.5"}